{"type":"FeatureCollection","features":[{"type":"Feature","properties":{"id":"1b4cdd26e46ba6b60f19191e","name":"新北市立圖書館三峽北大分館","category":"library","facilityType":"public-library","sourceUpdatedAt":"2026-09-05T06:08:23.018Z"},"geometry":{"type":"Point","coordinates":[121.377771,24.944196]}},{"type":"Feature","properties":{"id":"2d73d09cbfc418545fbc5dbd","name":"新北市立圖書館三峽分館","category":"library","facilityType":"public-library","sourceUpdatedAt":"2026-09-05T06:08:23.018Z"},"geometry":{"type":"Point","coordinates":[121.3765,24.9296]}}]}
