{"type":"FeatureCollection","features":[{"type":"Feature","properties":{"id":"9bee7d258e4097ca3b057733","name":"Times深坑北深路二段停車場","category":"parking","facilityType":"offstreet-parking","sourceUpdatedAt":"2026-10-05T07:01:19.293Z","carCapacity":31},"geometry":{"type":"Point","coordinates":[121.6179189,25.0029936]}},{"type":"Feature","properties":{"id":"798a06f40255a359fceba7de","name":"葉柏良停車場","category":"parking","facilityType":"offstreet-parking","sourceUpdatedAt":"2026-10-05T07:01:19.293Z","carCapacity":8},"geometry":{"type":"Point","coordinates":[121.6112171,25.0010198]}},{"type":"Feature","properties":{"id":"ce3a970e08bcbf5ba326d296","name":"老街停車場(葉阿田)","category":"parking","facilityType":"offstreet-parking","sourceUpdatedAt":"2026-10-05T07:01:19.293Z","carCapacity":5},"geometry":{"type":"Point","coordinates":[121.6102426,25.000882]}},{"type":"Feature","properties":{"id":"80830a9515d211f49edbfe91","name":"深坑兒童遊戲場地下停車場","category":"parking","facilityType":"offstreet-parking","sourceUpdatedAt":"2026-10-05T07:01:19.293Z","carCapacity":168},"geometry":{"type":"Point","coordinates":[121.6159059,25.0014193]}},{"type":"Feature","properties":{"id":"891385a6d4d0faab308c1bf9","name":"嘟嘟房深坑站停車場","category":"parking","facilityType":"offstreet-parking","sourceUpdatedAt":"2026-10-05T07:01:19.293Z","carCapacity":12},"geometry":{"type":"Point","coordinates":[121.6156575,25.0028612]}},{"type":"Feature","properties":{"id":"4079050462ea2da00e843fe2","name":"深坑北深路平面停車場","category":"parking","facilityType":"offstreet-parking","sourceUpdatedAt":"2026-10-05T07:01:19.293Z","carCapacity":13},"geometry":{"type":"Point","coordinates":[121.602055,25.003475]}}]}
