{"type":"FeatureCollection","features":[{"type":"Feature","properties":{"id":"adfce450f08a4197f9e03823","name":"新北市立圖書館中和大同圖書閱覽室","category":"library","facilityType":"public-library","sourceUpdatedAt":"2026-08-05T04:47:44.173Z"},"geometry":{"type":"Point","coordinates":[121.499668,24.996108]}},{"type":"Feature","properties":{"id":"00a5d206fe70f62db0671557","name":"新北市立圖書館永和分館","category":"library","facilityType":"public-library","sourceUpdatedAt":"2026-08-05T04:47:44.173Z"},"geometry":{"type":"Point","coordinates":[121.511079,25.002508]}},{"type":"Feature","properties":{"id":"8cc5a22a31ea29b6005fb158","name":"新北市立圖書館中和分館","category":"library","facilityType":"public-library","sourceUpdatedAt":"2026-08-05T04:47:44.173Z"},"geometry":{"type":"Point","coordinates":[121.5064,24.9896]}},{"type":"Feature","properties":{"id":"fcda6bd6dd89d2544618ed18","name":"新北市立圖書館中和員山分館","category":"library","facilityType":"public-library","sourceUpdatedAt":"2026-08-05T04:47:44.173Z"},"geometry":{"type":"Point","coordinates":[121.4743,25.0033]}},{"type":"Feature","properties":{"id":"95530ff12596315387fdfb60","name":"國立臺灣圖書館","category":"library","facilityType":"public-library","sourceUpdatedAt":"2026-08-05T04:47:44.173Z"},"geometry":{"type":"Point","coordinates":[121.5128,25.0014]}}]}
