{"type":"FeatureCollection","features":[{"type":"Feature","properties":{"id":"8df1c261ead9a092be0609fb","name":"恩樺醫院","category":"medical","facilityType":"hospital","sourceUpdatedAt":"2026-08-05T04:28:43.568Z"},"geometry":{"type":"Point","coordinates":[121.4487455,24.9911839]}},{"type":"Feature","properties":{"id":"5f8b6ee5f75e596f1f279771","name":"新北市立土城醫院(委託長庚醫療財團法人興建經營)","category":"medical","facilityType":"hospital","sourceUpdatedAt":"2026-08-05T04:28:43.568Z"},"geometry":{"type":"Point","coordinates":[121.4487299,24.9764367]}}]}
