{"type":"FeatureCollection","features":[{"type":"Feature","properties":{"id":"045e4b39a53b5d9b69979743","name":"新北市立圖書館永和忠孝圖書閱覽室","category":"library","facilityType":"public-library","sourceUpdatedAt":"2026-08-05T04:47:44.173Z"},"geometry":{"type":"Point","coordinates":[121.515312,25.016856]}},{"type":"Feature","properties":{"id":"d068d02a3101e806ad4c1d2d","name":"新北市立圖書館永和親子圖書閱覽室","category":"library","facilityType":"public-library","sourceUpdatedAt":"2026-08-05T04:47:44.173Z"},"geometry":{"type":"Point","coordinates":[121.508869,25.015394]}},{"type":"Feature","properties":{"id":"3368d070da32ce60b143057b","name":"新北市立圖書館永和保生分館","category":"library","facilityType":"public-library","sourceUpdatedAt":"2026-08-05T04:47:44.173Z"},"geometry":{"type":"Point","coordinates":[121.5051,25.0131]}},{"type":"Feature","properties":{"id":"1795b6194a71954005e83e8e","name":"新北市立圖書館永和民權分館","category":"library","facilityType":"public-library","sourceUpdatedAt":"2026-08-05T04:47:44.173Z"},"geometry":{"type":"Point","coordinates":[121.5199,24.9979]}}]}
